[{"CCSDS_OMM_VERS":"2.0","COMMENT":"GENERATED VIA SPACE-TRACK.ORG API","CREATION_DATE":"2023-06-27T06:36:13","ORIGINATOR":"18 SPCS","OBJECT_NAME":"KSF3-C","OBJECT_ID":"2023-001K","CENTER_NAME":"EARTH","REF_FRAME":"TEME","TIME_SYSTEM":"UTC","MEAN_ELEMENT_THEORY":"SGP4","EPOCH":"2023-06-26T20:51:45.641664","MEAN_MOTION":"15.17145570","ECCENTRICITY":"0.00093380","INCLINATION":"97.4761","RA_OF_ASC_NODE":"237.2878","ARG_OF_PERICENTER":"349.1116","MEAN_ANOMALY":"10.9914","EPHEMERIS_TYPE":"0","CLASSIFICATION_TYPE":"U","NORAD_CAT_ID":"55018","ELEMENT_SET_NO":"999","REV_AT_EPOCH":"2653","BSTAR":"0.00064589000000","MEAN_MOTION_DOT":"0.00012774","MEAN_MOTION_DDOT":"0.0000000000000","SEMIMAJOR_AXIS":"6892.609","PERIOD":"94.915","APOAPSIS":"520.911","PERIAPSIS":"508.038","OBJECT_TYPE":"PAYLOAD","RCS_SIZE":"MEDIUM","COUNTRY_CODE":"LUXE","LAUNCH_DATE":"2023-01-03","SITE":"AFETR","DECAY_DATE":null,"FILE":"3943778","GP_ID":"234576679","TLE_LINE0":"0 KSF3-C","TLE_LINE1":"1 55018U 23001K   23177.86927826  .00012774  00000-0  64589-3 0  9999","TLE_LINE2":"2 55018  97.4761 237.2878 0009338 349.1116  10.9914 15.17145570 26536"},{"CCSDS_OMM_VERS":"2.0","COMMENT":"GENERATED VIA SPACE-TRACK.ORG API","CREATION_DATE":"2023-06-27T14:26:13","ORIGINATOR":"18 SPCS","OBJECT_NAME":"KSF3-C","OBJECT_ID":"2023-001K","CENTER_NAME":"EARTH","REF_FRAME":"TEME","TIME_SYSTEM":"UTC","MEAN_ELEMENT_THEORY":"SGP4","EPOCH":"2023-06-27T07:56:35.160864","MEAN_MOTION":"15.17156379","ECCENTRICITY":"0.00093060","INCLINATION":"97.4761","RA_OF_ASC_NODE":"237.7434","ARG_OF_PERICENTER":"347.1466","MEAN_ANOMALY":"12.9528","EPHEMERIS_TYPE":"0","CLASSIFICATION_TYPE":"U","NORAD_CAT_ID":"55018","ELEMENT_SET_NO":"999","REV_AT_EPOCH":"2660","BSTAR":"0.00061695000000","MEAN_MOTION_DOT":"0.00012202","MEAN_MOTION_DDOT":"0.0000000000000","SEMIMAJOR_AXIS":"6892.577","PERIOD":"94.914","APOAPSIS":"520.856","PERIAPSIS":"508.028","OBJECT_TYPE":"PAYLOAD","RCS_SIZE":"MEDIUM","COUNTRY_CODE":"LUXE","LAUNCH_DATE":"2023-01-03","SITE":"AFETR","DECAY_DATE":null,"FILE":"3944027","GP_ID":"234582595","TLE_LINE0":"0 KSF3-C","TLE_LINE1":"1 55018U 23001K   23178.33096251  .00012202  00000-0  61695-3 0  9992","TLE_LINE2":"2 55018  97.4761 237.7434 0009306 347.1466  12.9528 15.17156379 26600"},{"CCSDS_OMM_VERS":"2.0","COMMENT":"GENERATED VIA SPACE-TRACK.ORG API","CREATION_DATE":"2023-06-27T22:36:12","ORIGINATOR":"18 SPCS","OBJECT_NAME":"KSF3-C","OBJECT_ID":"2023-001K","CENTER_NAME":"EARTH","REF_FRAME":"TEME","TIME_SYSTEM":"UTC","MEAN_ELEMENT_THEORY":"SGP4","EPOCH":"2023-06-27T19:01:24.398400","MEAN_MOTION":"15.17167464","ECCENTRICITY":"0.00092740","INCLINATION":"97.4763","RA_OF_ASC_NODE":"238.1989","ARG_OF_PERICENTER":"345.1323","MEAN_ANOMALY":"14.9636","EPHEMERIS_TYPE":"0","CLASSIFICATION_TYPE":"U","NORAD_CAT_ID":"55018","ELEMENT_SET_NO":"999","REV_AT_EPOCH":"2667","BSTAR":"0.00061355000000","MEAN_MOTION_DOT":"0.00012138","MEAN_MOTION_DDOT":"0.0000000000000","SEMIMAJOR_AXIS":"6892.543","PERIOD":"94.914","APOAPSIS":"520.800","PERIAPSIS":"508.016","OBJECT_TYPE":"PAYLOAD","RCS_SIZE":"MEDIUM","COUNTRY_CODE":"LUXE","LAUNCH_DATE":"2023-01-03","SITE":"AFETR","DECAY_DATE":null,"FILE":"3944354","GP_ID":"234591138","TLE_LINE0":"0 KSF3-C","TLE_LINE1":"1 55018U 23001K   23178.79264350  .00012138  00000-0  61355-3 0  9990","TLE_LINE2":"2 55018  97.4763 238.1989 0009274 345.1323  14.9636 15.17167464 26672"},{"CCSDS_OMM_VERS":"2.0","COMMENT":"GENERATED VIA SPACE-TRACK.ORG API","CREATION_DATE":"2023-06-28T06:26:12","ORIGINATOR":"18 SPCS","OBJECT_NAME":"KSF3-C","OBJECT_ID":"2023-001K","CENTER_NAME":"EARTH","REF_FRAME":"TEME","TIME_SYSTEM":"UTC","MEAN_ELEMENT_THEORY":"SGP4","EPOCH":"2023-06-28T04:31:14.942496","MEAN_MOTION":"15.17176766","ECCENTRICITY":"0.00092520","INCLINATION":"97.4764","RA_OF_ASC_NODE":"238.5894","ARG_OF_PERICENTER":"343.7833","MEAN_ANOMALY":"16.3103","EPHEMERIS_TYPE":"0","CLASSIFICATION_TYPE":"U","NORAD_CAT_ID":"55018","ELEMENT_SET_NO":"999","REV_AT_EPOCH":"2673","BSTAR":"0.00058912000000","MEAN_MOTION_DOT":"0.00011654","MEAN_MOTION_DDOT":"0.0000000000000","SEMIMAJOR_AXIS":"6892.515","PERIOD":"94.913","APOAPSIS":"520.757","PERIAPSIS":"508.003","OBJECT_TYPE":"PAYLOAD","RCS_SIZE":"MEDIUM","COUNTRY_CODE":"LUXE","LAUNCH_DATE":"2023-01-03","SITE":"AFETR","DECAY_DATE":null,"FILE":"3944627","GP_ID":"234597737","TLE_LINE0":"0 KSF3-C","TLE_LINE1":"1 55018U 23001K   23179.18836739  .00011654  00000-0  58912-3 0  9997","TLE_LINE2":"2 55018  97.4764 238.5894 0009252 343.7833  16.3103 15.17176766 26735"},{"CCSDS_OMM_VERS":"2.0","COMMENT":"GENERATED VIA SPACE-TRACK.ORG API","CREATION_DATE":"2023-06-28T14:26:12","ORIGINATOR":"18 SPCS","OBJECT_NAME":"KSF3-C","OBJECT_ID":"2023-001K","CENTER_NAME":"EARTH","REF_FRAME":"TEME","TIME_SYSTEM":"UTC","MEAN_ELEMENT_THEORY":"SGP4","EPOCH":"2023-06-28T09:16:10.139808","MEAN_MOTION":"15.17180842","ECCENTRICITY":"0.00092320","INCLINATION":"97.4764","RA_OF_ASC_NODE":"238.7846","ARG_OF_PERICENTER":"343.0313","MEAN_ANOMALY":"17.0611","EPHEMERIS_TYPE":"0","CLASSIFICATION_TYPE":"U","NORAD_CAT_ID":"55018","ELEMENT_SET_NO":"999","REV_AT_EPOCH":"2676","BSTAR":"0.00058544000000","MEAN_MOTION_DOT":"0.00011582","MEAN_MOTION_DDOT":"0.0000000000000","SEMIMAJOR_AXIS":"6892.503","PERIOD":"94.913","APOAPSIS":"520.731","PERIAPSIS":"508.004","OBJECT_TYPE":"PAYLOAD","RCS_SIZE":"MEDIUM","COUNTRY_CODE":"LUXE","LAUNCH_DATE":"2023-01-03","SITE":"AFETR","DECAY_DATE":null,"FILE":"3944870","GP_ID":"234603264","TLE_LINE0":"0 KSF3-C","TLE_LINE1":"1 55018U 23001K   23179.38622847  .00011582  00000-0  58544-3 0  9993","TLE_LINE2":"2 55018  97.4764 238.7846 0009232 343.0313  17.0611 15.17180842 26763"},{"CCSDS_OMM_VERS":"2.0","COMMENT":"GENERATED VIA SPACE-TRACK.ORG API","CREATION_DATE":"2023-06-28T22:26:12","ORIGINATOR":"18 SPCS","OBJECT_NAME":"KSF3-C","OBJECT_ID":"2023-001K","CENTER_NAME":"EARTH","REF_FRAME":"TEME","TIME_SYSTEM":"UTC","MEAN_ELEMENT_THEORY":"SGP4","EPOCH":"2023-06-28T17:11:02.027616","MEAN_MOTION":"15.17188678","ECCENTRICITY":"0.00092070","INCLINATION":"97.4766","RA_OF_ASC_NODE":"239.1100","ARG_OF_PERICENTER":"341.8064","MEAN_ANOMALY":"18.2839","EPHEMERIS_TYPE":"0","CLASSIFICATION_TYPE":"U","NORAD_CAT_ID":"55018","ELEMENT_SET_NO":"999","REV_AT_EPOCH":"2681","BSTAR":"0.00057736000000","MEAN_MOTION_DOT":"0.00011423","MEAN_MOTION_DDOT":"0.0000000000000","SEMIMAJOR_AXIS":"6892.479","PERIOD":"94.912","APOAPSIS":"520.690","PERIAPSIS":"507.998","OBJECT_TYPE":"PAYLOAD","RCS_SIZE":"MEDIUM","COUNTRY_CODE":"LUXE","LAUNCH_DATE":"2023-01-03","SITE":"AFETR","DECAY_DATE":null,"FILE":"3945108","GP_ID":"234609080","TLE_LINE0":"0 KSF3-C","TLE_LINE1":"1 55018U 23001K   23179.71599569  .00011423  00000-0  57736-3 0  9990","TLE_LINE2":"2 55018  97.4766 239.1100 0009207 341.8064  18.2839 15.17188678 26810"},{"CCSDS_OMM_VERS":"2.0","COMMENT":"GENERATED VIA SPACE-TRACK.ORG API","CREATION_DATE":"2023-06-29T06:36:13","ORIGINATOR":"18 SPCS","OBJECT_NAME":"KSF3-C","OBJECT_ID":"2023-001K","CENTER_NAME":"EARTH","REF_FRAME":"TEME","TIME_SYSTEM":"UTC","MEAN_ELEMENT_THEORY":"SGP4","EPOCH":"2023-06-29T02:40:52.112064","MEAN_MOTION":"15.17196930","ECCENTRICITY":"0.00091590","INCLINATION":"97.4767","RA_OF_ASC_NODE":"239.5004","ARG_OF_PERICENTER":"340.3442","MEAN_ANOMALY":"19.7437","EPHEMERIS_TYPE":"0","CLASSIFICATION_TYPE":"U","NORAD_CAT_ID":"55018","ELEMENT_SET_NO":"999","REV_AT_EPOCH":"2687","BSTAR":"0.00054338000000","MEAN_MOTION_DOT":"0.00010749","MEAN_MOTION_DDOT":"0.0000000000000","SEMIMAJOR_AXIS":"6892.454","PERIOD":"94.912","APOAPSIS":"520.632","PERIAPSIS":"508.006","OBJECT_TYPE":"PAYLOAD","RCS_SIZE":"MEDIUM","COUNTRY_CODE":"LUXE","LAUNCH_DATE":"2023-01-03","SITE":"AFETR","DECAY_DATE":null,"FILE":"3945346","GP_ID":"234614745","TLE_LINE0":"0 KSF3-C","TLE_LINE1":"1 55018U 23001K   23180.11171426  .00010749  00000-0  54338-3 0  9999","TLE_LINE2":"2 55018  97.4767 239.5004 0009159 340.3442  19.7437 15.17196930 26874"},{"CCSDS_OMM_VERS":"2.0","COMMENT":"GENERATED VIA SPACE-TRACK.ORG API","CREATION_DATE":"2023-06-29T14:26:13","ORIGINATOR":"18 SPCS","OBJECT_NAME":"KSF3-C","OBJECT_ID":"2023-001K","CENTER_NAME":"EARTH","REF_FRAME":"TEME","TIME_SYSTEM":"UTC","MEAN_ELEMENT_THEORY":"SGP4","EPOCH":"2023-06-29T10:35:43.697472","MEAN_MOTION":"15.17203835","ECCENTRICITY":"0.00091290","INCLINATION":"97.4768","RA_OF_ASC_NODE":"239.8258","ARG_OF_PERICENTER":"339.1784","MEAN_ANOMALY":"20.9076","EPHEMERIS_TYPE":"0","CLASSIFICATION_TYPE":"U","NORAD_CAT_ID":"55018","ELEMENT_SET_NO":"999","REV_AT_EPOCH":"2692","BSTAR":"0.00054376000000","MEAN_MOTION_DOT":"0.00010758","MEAN_MOTION_DDOT":"0.0000000000000","SEMIMAJOR_AXIS":"6892.433","PERIOD":"94.911","APOAPSIS":"520.590","PERIAPSIS":"508.006","OBJECT_TYPE":"PAYLOAD","RCS_SIZE":"MEDIUM","COUNTRY_CODE":"LUXE","LAUNCH_DATE":"2023-01-03","SITE":"AFETR","DECAY_DATE":null,"FILE":"3945619","GP_ID":"234621378","TLE_LINE0":"0 KSF3-C","TLE_LINE1":"1 55018U 23001K   23180.44147798  .00010758  00000-0  54376-3 0  9992","TLE_LINE2":"2 55018  97.4768 239.8258 0009129 339.1784  20.9076 15.17203835 26923"}]